[{"OBJECT_NAME":"STARLINK-2647","OBJECT_ID":"2021-044W","EPOCH":"2026-03-09T09:45:53.125632","MEAN_MOTION":15.30203057,"ECCENTRICITY":0.00013929,"INCLINATION":53.1613,"RA_OF_ASC_NODE":115.1599,"ARG_OF_PERICENTER":82.0945,"MEAN_ANOMALY":278.0214,"EPHEMERIS_TYPE":0,"CLASSIFICATION_TYPE":"U","NORAD_CAT_ID":48658,"ELEMENT_SET_NO":999,"REV_AT_EPOCH":26378,"BSTAR":-2.315396e-6,"MEAN_MOTION_DOT":-4.28e-6,"MEAN_MOTION_DDOT":0},{"OBJECT_NAME":"EOSSAT-1","OBJECT_ID":"2023-001AW","EPOCH":"2026-03-09T17:40:07.010400","MEAN_MOTION":15.32339828,"ECCENTRICITY":0.00112629,"INCLINATION":97.3357,"RA_OF_ASC_NODE":130.2294,"ARG_OF_PERICENTER":110.3168,"MEAN_ANOMALY":249.9285,"EPHEMERIS_TYPE":0,"CLASSIFICATION_TYPE":"U","NORAD_CAT_ID":55053,"ELEMENT_SET_NO":999,"REV_AT_EPOCH":17668,"BSTAR":0.00024844399,"MEAN_MOTION_DOT":7.695e-5,"MEAN_MOTION_DDOT":0}]
